*******************************************************************************
Ephemeris / WWW_USER Mon Mar 24 06:39:32 2025 Pasadena, USA      / Horizons    
*******************************************************************************
Target body name: (2018 RC)                       {source: JPL#21}
Center body name: Earth (399)                     {source: DE441}
Center-site name: Gemini South Obs., Cerro Pachon
*******************************************************************************
Start time      : A.D. 2018-Sep-03 22:37:00.0000 UT      
Stop  time      : A.D. 2018-Sep-04 10:46:00.0000 UT      
Step-size       : 1 minutes
*******************************************************************************
Target pole/equ : undefined
Target radii    : undefined                                                    
Center geodetic : 289.2634, -30.2406227, 2.71233  {E-lon(deg),Lat(deg),Alt(km)}
Center cylindric: 289.2634,5517.21435,-3194.81213 {E-lon(deg),Dxy(km),Dz(km)}
Center pole/equ : ITRF93                          {East-longitude positive}
Center radii    : 6378.137, 6378.137, 6356.752 km {Equator_a, b, pole_c}       
Target primary  : Sun
Vis. interferer : MOON (R_eq= 1737.400) km        {source: DE441}
Rel. light bend : Sun                             {source: DE441}
Rel. lght bnd GM: 1.3271E+11 km^3/s^2                                          
Small-body perts: Yes                             {source: SB441-N16}
Atmos refraction: NO (AIRLESS)
RA format       : HMS
Time format     : CAL 
Calendar mode   : Mixed Julian/Gregorian
RTS-only print  : NO       
EOP file        : eop.250321.p250617                                           
EOP coverage    : DATA-BASED 1962-JAN-20 TO 2025-MAR-21. PREDICTS-> 2025-JUN-16
Units conversion: 1 au= 149597870.700 km, c= 299792.458 km/s, 1 day= 86400.0 s 
Table cut-offs 1: Elevation (-90.0deg=NO ),Airmass (>38.000=NO), Daylight (YES)
Table cut-offs 2: Solar elongation (  0.0,180.0=NO ),Local Hour Angle( 0.0=NO )
Table cut-offs 3: RA/DEC angular rate (     0.0=NO )                           
*******************************************************************************
Initial IAU76/J2000 heliocentric ecliptic osculating elements (au, days, deg.):
  EPOCH=  2458369.5 ! 2018-Sep-08.00 (TDB)         Residual RMS= .84866        
   EC= .2426621660028976   QR= .647471518312811    TP= 2458473.8617576878      
   OM= 346.8893436915528   W=  145.8737085184167   IN= 1.612045057594462       
  Equivalent ICRF heliocentric cartesian coordinates (au, au/d):
   X= 9.781363708094483E-01  Y=-2.377942828764822E-01  Z=-1.040448782093900E-01
  VX= 1.501011538102481E-03 VY= 1.393070215815854E-02 VZ= 6.509326736836346E-03
Asteroid physical parameters (km, seconds, rotational period in hours):        
   GM= n.a.                RAD= n.a.               ROTPER= .16548              
   H= 24.93                G= .150                 B-V= n.a.                   
                           ALBEDO= n.a.            STYP= n.a.                  
*******************************************************************************
 Date__(UT)__HR:MN     R.A._________(ICRF)_________DEC
******************************************************
$$SOE
 2018-Sep-04 08:52  m  01 20 44.547227 -01 20 08.33987
 2018-Sep-04 08:53  m  01 20 44.253076 -01 20 09.69456
 2018-Sep-04 08:54  m  01 20 43.959123 -01 20 11.04941
 2018-Sep-04 08:55  m  01 20 43.665370 -01 20 12.40443
 2018-Sep-04 08:56  m  01 20 43.371822 -01 20 13.75962
 2018-Sep-04 08:57  m  01 20 43.078479 -01 20 15.11497
 2018-Sep-04 08:58  m  01 20 42.785345 -01 20 16.47050
 2018-Sep-04 08:59  m  01 20 42.492422 -01 20 17.82619
 2018-Sep-04 09:00  m  01 20 42.199714 -01 20 19.18205
 2018-Sep-04 09:01  m  01 20 41.907222 -01 20 20.53808
 2018-Sep-04 09:02  m  01 20 41.614949 -01 20 21.89428
 2018-Sep-04 09:03  m  01 20 41.322899 -01 20 23.25065
 2018-Sep-04 09:04  m  01 20 41.031072 -01 20 24.60719
 2018-Sep-04 09:05  m  01 20 40.739473 -01 20 25.96390
 2018-Sep-04 09:06  m  01 20 40.448104 -01 20 27.32078
 2018-Sep-04 09:07  m  01 20 40.156966 -01 20 28.67783
 2018-Sep-04 09:08  m  01 20 39.866064 -01 20 30.03505
 2018-Sep-04 09:09  m  01 20 39.575399 -01 20 31.39245
 2018-Sep-04 09:10  m  01 20 39.284975 -01 20 32.75001
 2018-Sep-04 09:11  m  01 20 38.994793 -01 20 34.10775
 2018-Sep-04 09:12  m  01 20 38.704856 -01 20 35.46566
 2018-Sep-04 09:13  m  01 20 38.415167 -01 20 36.82375
 2018-Sep-04 09:14  m  01 20 38.125729 -01 20 38.18200
 2018-Sep-04 09:15  m  01 20 37.836543 -01 20 39.54043
 2018-Sep-04 09:16  m  01 20 37.547613 -01 20 40.89904
 2018-Sep-04 09:17  m  01 20 37.258941 -01 20 42.25782
 2018-Sep-04 09:18  m  01 20 36.970530 -01 20 43.61677
 2018-Sep-04 09:19  m  01 20 36.682381 -01 20 44.97590
 2018-Sep-04 09:20  m  01 20 36.394499 -01 20 46.33521
 2018-Sep-04 09:21  m  01 20 36.106884 -01 20 47.69469
 2018-Sep-04 09:22  m  01 20 35.819541 -01 20 49.05434
 2018-Sep-04 09:23  m  01 20 35.532470 -01 20 50.41418
 2018-Sep-04 09:24  m  01 20 35.245675 -01 20 51.77419
 2018-Sep-04 09:25  m  01 20 34.959159 -01 20 53.13438
 2018-Sep-04 09:26  m  01 20 34.672923 -01 20 54.49474
 2018-Sep-04 09:27  m  01 20 34.386971 -01 20 55.85528
 2018-Sep-04 09:28  m  01 20 34.101304 -01 20 57.21601
 2018-Sep-04 09:29  m  01 20 33.815926 -01 20 58.57691
 2018-Sep-04 09:30  m  01 20 33.530838 -01 20 59.93799
 2018-Sep-04 09:31  m  01 20 33.246044 -01 21 01.29925
 2018-Sep-04 09:32  m  01 20 32.961545 -01 21 02.66069
 2018-Sep-04 09:33  m  01 20 32.677344 -01 21 04.02231
 2018-Sep-04 09:34  m  01 20 32.393444 -01 21 05.38411
 2018-Sep-04 09:35  m  01 20 32.109847 -01 21 06.74610
 2018-Sep-04 09:36 Am  01 20 31.826555 -01 21 08.10827
 2018-Sep-04 09:37 Am  01 20 31.543571 -01 21 09.47061
 2018-Sep-04 09:38 Am  01 20 31.260898 -01 21 10.83315
 2018-Sep-04 09:39 Am  01 20 30.978537 -01 21 12.19586
 2018-Sep-04 09:40 Am  01 20 30.696491 -01 21 13.55876
 2018-Sep-04 09:41 Am  01 20 30.414763 -01 21 14.92184
 2018-Sep-04 09:42 Am  01 20 30.133355 -01 21 16.28511
 2018-Sep-04 09:43 Am  01 20 29.852269 -01 21 17.64857
 2018-Sep-04 09:44 Am  01 20 29.571508 -01 21 19.01221
 2018-Sep-04 09:45 Am  01 20 29.291075 -01 21 20.37603
 2018-Sep-04 09:46 Am  01 20 29.010970 -01 21 21.74004
 2018-Sep-04 09:47 Am  01 20 28.731198 -01 21 23.10424
 2018-Sep-04 09:48 Am  01 20 28.451760 -01 21 24.46863
 2018-Sep-04 09:49 Am  01 20 28.172658 -01 21 25.83320
 2018-Sep-04 09:50 Am  01 20 27.893896 -01 21 27.19797
 2018-Sep-04 09:51 Am  01 20 27.615474 -01 21 28.56292
 2018-Sep-04 09:52 Am  01 20 27.337397 -01 21 29.92806
 2018-Sep-04 09:53 Am  01 20 27.059665 -01 21 31.29340
 2018-Sep-04 09:54 Am  01 20 26.782281 -01 21 32.65892
 2018-Sep-04 09:55 Am  01 20 26.505249 -01 21 34.02463
 2018-Sep-04 09:56 Am  01 20 26.228569 -01 21 35.39054
 2018-Sep-04 09:57 Am  01 20 25.952244 -01 21 36.75664
 2018-Sep-04 09:58 Am  01 20 25.676277 -01 21 38.12293
 2018-Sep-04 09:59 Am  01 20 25.400669 -01 21 39.48942
 2018-Sep-04 10:00 Am  01 20 25.125424 -01 21 40.85610
 2018-Sep-04 10:01 Am  01 20 24.850543 -01 21 42.22297
 2018-Sep-04 10:02 Am  01 20 24.576028 -01 21 43.59004
 2018-Sep-04 10:03 Nm  01 20 24.301882 -01 21 44.95730
 2018-Sep-04 10:04 Nm  01 20 24.028108 -01 21 46.32476
 2018-Sep-04 10:05 Nm  01 20 23.754707 -01 21 47.69242
 2018-Sep-04 10:06 Nm  01 20 23.481681 -01 21 49.06027
 2018-Sep-04 10:07 Nm  01 20 23.209033 -01 21 50.42833
 2018-Sep-04 10:08 Nm  01 20 22.936765 -01 21 51.79658
 2018-Sep-04 10:09 Nm  01 20 22.664880 -01 21 53.16503
 2018-Sep-04 10:10 Nm  01 20 22.393379 -01 21 54.53368
 2018-Sep-04 10:11 Nm  01 20 22.122264 -01 21 55.90253
 2018-Sep-04 10:12 Nm  01 20 21.851538 -01 21 57.27158
 2018-Sep-04 10:13 Nm  01 20 21.581203 -01 21 58.64083
 2018-Sep-04 10:14 Nm  01 20 21.311262 -01 22 00.01028
 2018-Sep-04 10:15 Nm  01 20 21.041715 -01 22 01.37994
 2018-Sep-04 10:16 Nm  01 20 20.772566 -01 22 02.74980
 2018-Sep-04 10:17 Nm  01 20 20.503817 -01 22 04.11986
 2018-Sep-04 10:18 Nm  01 20 20.235470 -01 22 05.49013
 2018-Sep-04 10:19 Nm  01 20 19.967526 -01 22 06.86060
 2018-Sep-04 10:20 Nm  01 20 19.699988 -01 22 08.23128
 2018-Sep-04 10:21 Nm  01 20 19.432859 -01 22 09.60216
 2018-Sep-04 10:22 Nm  01 20 19.166139 -01 22 10.97325
 2018-Sep-04 10:23 Nm  01 20 18.899832 -01 22 12.34455
 2018-Sep-04 10:24 Nm  01 20 18.633940 -01 22 13.71606
 2018-Sep-04 10:25 Nm  01 20 18.368463 -01 22 15.08778
 2018-Sep-04 10:26 Nm  01 20 18.103406 -01 22 16.45970
 2018-Sep-04 10:27 Nm  01 20 17.838769 -01 22 17.83184
 2018-Sep-04 10:28 Nm  01 20 17.574554 -01 22 19.20418
 2018-Sep-04 10:29 Nm  01 20 17.310765 -01 22 20.57674
 2018-Sep-04 10:30 Nm  01 20 17.047402 -01 22 21.94951
 2018-Sep-04 10:31 Cm  01 20 16.784468 -01 22 23.32250
 2018-Sep-04 10:32 Cm  01 20 16.521965 -01 22 24.69569
 2018-Sep-04 10:33 Cm  01 20 16.259894 -01 22 26.06910
 2018-Sep-04 10:34 Cm  01 20 15.998258 -01 22 27.44273
 2018-Sep-04 10:35 Cm  01 20 15.737059 -01 22 28.81657
 2018-Sep-04 10:36 Cm  01 20 15.476299 -01 22 30.19063
 2018-Sep-04 10:37 Cm  01 20 15.215980 -01 22 31.56490
 2018-Sep-04 10:38 Cm  01 20 14.956103 -01 22 32.93940
 2018-Sep-04 10:39 Cm  01 20 14.696671 -01 22 34.31411
 2018-Sep-04 10:40 Cm  01 20 14.437685 -01 22 35.68904
 2018-Sep-04 10:41 Cm  01 20 14.179149 -01 22 37.06419
 2018-Sep-04 10:42 Cm  01 20 13.921062 -01 22 38.43956
 2018-Sep-04 10:43 Cm  01 20 13.663428 -01 22 39.81515
 2018-Sep-04 10:44 Cm  01 20 13.406249 -01 22 41.19096
 2018-Sep-04 10:45 Cm  01 20 13.149525 -01 22 42.56699
 2018-Sep-04 10:46 Cm  01 20 12.893260 -01 22 43.94325
